NORAD_CAT_ID,OBJECT_NAME,OBJECT_TYPE,EPOCH,MEAN_MOTION,ECCENTRICITY,INCLINATION,RA_OF_ASC_NODE,ARG_OF_PERICENTER,MEAN_ANOMALY,BSTAR,MEAN_MOTION_DOT,MEAN_MOTION_DDOT,TLE_LINE0,TLE_LINE1,TLE_LINE2,SEMIMAJOR_AXIS,PERIOD,APOGEE,PERIGEE,DECAYED
53736.0,STARLINK-4652,PAYLOAD,2022-12-16 23:10:38,15.08818562,0.0002056,53.2188,145.7966,45.0657,315.0502,0.00018343,2.631e-05,0.0,0 STARLINK-4652,1 53736U 22107AN  22350.96572900  .00002631  00000-0  18343-3 0  9990,2 53736  53.2188 145.7966 0002056  45.0657 315.0502 15.08818562 16008,6917.946,95.439,541.2330000000002,538.389,0.0
53736.0,STARLINK-4652,PAYLOAD,2022-12-17 10:18:20,15.08835362,0.0001895,53.219,143.7152,56.2978,303.8195,4.2831e-05,3.93e-06,0.0,0 STARLINK-4652,1 53736U 22107AN  22351.42940218  .00000393  00000-0  42831-4 0  9996,2 53736  53.2190 143.7152 0001895  56.2978 303.8195 15.08835362 16703,6917.895,95.438,541.071,538.4490000000002,0.0
53736.0,STARLINK-4652,PAYLOAD,2022-12-17 16:39:53,15.0883273,0.0001794,53.2196,142.5257,49.3595,310.7553,-4.4619e-05,-9.98e-06,0.0,0 STARLINK-4652,1 53736U 22107AN  22351.69436828 -.00000998  00000-0 -44619-4 0  9991,2 53736  53.2196 142.5257 0001794  49.3595 310.7553 15.08832730 16114,6917.903,95.438,541.009,538.5269999999998,0.0
53736.0,STARLINK-4652,PAYLOAD,2022-12-17 21:26:03,15.08832807,0.0001882,53.2194,141.6333,55.5736,304.5434,-0.00010346,-1.934e-05,0.0,0 STARLINK-4652,1 53736U 22107AN  22351.89309094 -.00001934  00000-0 -10346-3 0  9997,2 53736  53.2194 141.6333 0001882  55.5736 304.5434 15.08832807 16777,6917.901999999999,95.438,541.069,538.465,0.0
53736.0,STARLINK-4652,PAYLOAD,2022-12-18 16:30:40,15.08835681,0.0001946,53.2189,138.0662,53.3157,306.8014,4.8177e-05,4.79e-06,0.0,0 STARLINK-4652,1 53736U 22107AN  22352.68796606  .00000479  00000-0  48177-4 0  9999,2 53736  53.2189 138.0662 0001946  53.3157 306.8014 15.08835681 16266,6917.894,95.438,541.105,538.4119999999998,0.0
53736.0,STARLINK-4652,PAYLOAD,2022-12-18 19:41:26,15.08838356,0.0001931,53.219,137.4712,54.4765,305.6407,6.5401e-05,7.53e-06,0.0,0 STARLINK-4652,1 53736U 22107AN  22352.82044395  .00000753  00000-0  65401-4 0  9990,2 53736  53.2190 137.4712 0001931  54.4765 305.6407 15.08838356 16915,6917.885,95.438,541.086,538.415,0.0
53736.0,STARLINK-4652,PAYLOAD,2022-12-18 21:16:49,15.08839053,0.0001934,53.2188,137.1738,53.9312,306.1859,7.1974e-05,8.57e-06,0.0,0 STARLINK-4652,1 53736U 22107AN  22352.88668332  .00000857  00000-0  71974-4 0  9996,2 53736  53.2188 137.1738 0001934  53.9312 306.1859 15.08839053 16925,6917.8830000000025,95.438,541.086,538.41,0.0
53736.0,STARLINK-4652,PAYLOAD,2022-12-19 16:21:27,15.08839131,0.000191,53.2193,133.6052,51.8024,308.314,7.8957e-05,9.69e-06,0.0,0 STARLINK-4652,1 53736U 22107AN  22353.68156288  .00000969  00000-0  78957-4 0  9999,2 53736  53.2193 133.6052 0001910  51.8024 308.3140 15.08839131 17040,6917.8830000000025,95.438,541.069,538.427,0.0
53736.0,STARLINK-4652,PAYLOAD,2022-12-19 21:07:36,15.08840471,0.0001951,53.2194,132.7129,51.8423,308.2745,0.0001147,1.538e-05,0.0,0 STARLINK-4652,1 53736U 22107AN  22353.88028078  .00001538  00000-0  11470-3 0  9995,2 53736  53.2194 132.7129 0001951  51.8423 308.2745 15.08840471 16446,6917.879,95.438,541.094,538.394,0.0
53736.0,STARLINK-4652,PAYLOAD,2022-12-20 01:53:45,15.08845673,0.0001914,53.2191,131.8215,51.4637,308.6527,0.00013823,1.913e-05,0.0,0 STARLINK-4652,1 53736U 22107AN  22354.07899607  .00001913  00000-0  13823-3 0  9992,2 53736  53.2191 131.8215 0001914  51.4637 308.6527 15.08845673 17106,6917.863,95.437,541.052,538.404,0.0
53736.0,STARLINK-4652,PAYLOAD,2022-12-20 20:58:23,15.08838872,0.0001842,53.2185,128.254,50.011,310.1043,-6.637800000000001e-05,-1.344e-05,0.0,0 STARLINK-4652,1 53736U 22107AN  22354.87388485 -.00001344  00000-0 -66378-4 0  9991,2 53736  53.2185 128.2540 0001842  50.0110 310.1043 15.08838872 16597,6917.884,95.438,541.023,538.475,0.0
53736.0,STARLINK-4652,PAYLOAD,2022-12-21 19:13:47,15.08836067,0.0001902,53.219,124.0908,49.3417,310.774,-4.1367e-05,-9.46e-06,0.0,0 STARLINK-4652,1 53736U 22107AN  22355.80124798 -.00000946  00000-0 -41367-4 0  9998,2 53736  53.2190 124.0908 0001902  49.3417 310.7740 15.08836067 17363,6917.892,95.438,541.073,538.442,0.0
53736.0,STARLINK-4652,PAYLOAD,2022-12-22 14:18:25,15.08832445,0.0002012,53.22,120.5217,49.4044,310.7123,1.6222e-05,-3e-07,0.0,0 STARLINK-4652,1 53736U 22107AN  22356.59612861 -.00000030  00000-0  16222-4 0  9993,2 53736  53.2200 120.5217 0002012  49.4044 310.7123 15.08832445 17483,6917.903,95.438,541.16,538.377,0.0
53736.0,STARLINK-4652,PAYLOAD,2022-12-22 20:39:58,15.08826814,0.000205,53.2198,119.3323,50.8459,309.2716,0.00013225,1.816e-05,0.0,0 STARLINK-4652,1 53736U 22107AN  22356.86108952  .00001816  00000-0  13225-3 0  9995,2 53736  53.2198 119.3323 0002050  50.8459 309.2716 15.08826814 16899,6917.920999999999,95.438,541.2040000000002,538.368,0.0
53736.0,STARLINK-4652,PAYLOAD,2022-12-23 01:26:07,15.08841558,0.000212,53.2199,118.4406,49.0858,311.0317,-1.6203e-05,-5.46e-06,0.0,0 STARLINK-4652,1 53736U 22107AN  22357.05980558 -.00000546  00000-0 -16203-4 0  9998,2 53736  53.2199 118.4406 0002120  49.0858 311.0317 15.08841558 16927,6917.876,95.437,541.207,538.274,0.0
53736.0,STARLINK-4652,PAYLOAD,2022-12-23 15:44:35,15.08832736,0.0001915,53.2189,115.7654,47.1161,312.9992,4.5545e-05,4.37e-06,0.0,0 STARLINK-4652,1 53736U 22107AN  22357.65597105  .00000437  00000-0  45545-4 0  9994,2 53736  53.2189 115.7654 0001915  47.1161 312.9992 15.08832736 17645,6917.903,95.438,541.092,538.443,0.0
53736.0,STARLINK-4652,PAYLOAD,2022-12-24 07:38:26,15.08846682,0.0001745,53.2178,112.7918,45.7344,314.3791,0.000109,1.447e-05,0.0,0 STARLINK-4652,1 53736U 22107AN  22358.31835842  .00001447  00000-0  10900-3 0  9999,2 53736  53.2178 112.7918 0001745  45.7344 314.3791 15.08846682 17111,6917.86,95.437,540.932,538.518,0.0
53736.0,STARLINK-4652,PAYLOAD,2022-12-24 13:59:59,15.08841824,0.0001789,53.2201,111.6011,44.3562,315.7574,2.4234e-05,9.8e-07,0.0,0 STARLINK-4652,1 53736U 22107AN  22358.58332470  .00000098  00000-0  24234-4 0  9994,2 53736  53.2201 111.6011 0001789  44.3562 315.7574 15.08841824 17156,6917.875,95.437,540.977,538.502,0.0
53736.0,STARLINK-4652,PAYLOAD,2022-12-25 10:40:00,15.08832658,0.0001751999999999,53.2197,107.7351,45.955,314.1587,-2.281e-05,-6.51e-06,0.0,0 STARLINK-4652,1 53736U 22107AN  22359.44445195 -.00000651  00000-0 -22810-4 0  9994,2 53736  53.2197 107.7351 0001752  45.9550 314.1587 15.08832658 17913,6917.903,95.438,540.98,538.556,0.0
53736.0,STARLINK-4652,PAYLOAD,2022-12-25 13:50:47,15.08827777,0.0001674,53.2196,107.1411,41.4389,318.673,-1.1219e-06,-3.06e-06,0.0,0 STARLINK-4652,1 53736U 22107AN  22359.57693473 -.00000306  00000-0 -11219-5 0  9991,2 53736  53.2196 107.1411 0001674  41.4389 318.6730 15.08827777 17305,6917.918000000002,95.438,540.941,538.625,0.0
53736.0,STARLINK-4652,PAYLOAD,2022-12-25 17:01:33,15.08838786,0.0002048,53.219,106.5471,40.728,319.3865,-5.4222e-05,-1.151e-05,0.0,0 STARLINK-4652,1 53736U 22107AN  22359.70941074 -.00001151  00000-0 -54222-4 0  9998,2 53736  53.2190 106.5471 0002048  40.7280 319.3865 15.08838786 17327,6917.884,95.438,541.1659999999998,538.332,0.0
53736.0,STARLINK-4652,PAYLOAD,2022-12-26 13:41:33,15.08849915,0.0001978,53.219,102.6822,40.2639,319.8499,-0.00018029,-3.157e-05,0.0,0 STARLINK-4652,1 53736U 22107AN  22360.57052636 -.00003157  00000-0 -18029-3 0  9994,2 53736  53.2190 102.6822 0001978  40.2639 319.8499 15.08849915 18086,6917.85,95.437,541.0830000000002,538.347,0.0
53736.0,STARLINK-4652,PAYLOAD,2022-12-26 18:27:43,15.08838815,0.000195,53.2187,101.7901,43.0544,317.06,-2.584300000000001e-05,-6.99e-06,0.0,0 STARLINK-4652,1 53736U 22107AN  22360.76924961 -.00000699  00000-0 -25843-4 0  9995,2 53736  53.2187 101.7901 0001950  43.0544 317.0600 15.08838815 18111,6917.884,95.438,541.0980000000002,538.4,0.0
53736.0,STARLINK-4652,PAYLOAD,2022-12-28 05:26:11,15.0884509,0.0001914,53.2207,95.2461,39.2366,320.8765,0.00012262,1.664e-05,0.0,0 STARLINK-4652,1 53736U 22107AN  22362.22651791  .00001664  00000-0  12262-3 0  9997,2 53736  53.2207  95.2461 0001914  39.2366 320.8765 15.08845090 17702,6917.865,95.437,541.054,538.406,0.0
53736.0,STARLINK-4652,PAYLOAD,2022-12-28 07:01:34,15.08848856,0.0001949,53.22,94.9492,39.3834,320.73,8.3439e-05,1.04e-05,0.0,0 STARLINK-4652,1 53736U 22107AN  22362.29275731  .00001040  00000-0  83439-4 0  9993,2 53736  53.2200  94.9492 0001949  39.3834 320.7300 15.08848856 18342,6917.853,95.437,541.067,538.37,0.0
53736.0,STARLINK-4652,PAYLOAD,2022-12-28 22:55:27,15.08832289,0.0002126999999999,53.2197,91.9777,31.4312,328.6807,-7.6616e-05,-1.507e-05,0.0,0 STARLINK-4652,1 53736U 22107AN  22362.95517389 -.00001507  00000-0 -76616-4 0  9993,2 53736  53.2197  91.9777 0002127  31.4312 328.6807 15.08832289 17816,6917.904,95.438,541.24,538.298,0.0
53736.0,STARLINK-4652,PAYLOAD,2022-12-29 13:13:56,15.08822436,0.0002165,53.2212,89.3011,40.6501,319.4653,-0.00022121,-3.805e-05,0.0,0 STARLINK-4652,1 53736U 22107AN  22363.55135244 -.00003805  00000-0 -22121-3 0  9990,2 53736  53.2212  89.3011 0002165  40.6501 319.4653 15.08822436 17900,6917.934,95.439,541.297,538.3009999999998,0.0
53736.0,STARLINK-4652,PAYLOAD,2022-12-29 22:46:14,15.08851591,0.0001511,53.2211,87.5186,46.0813,314.0304,-0.00050328,-8.291e-05,0.0,0 STARLINK-4652,1 53736U 22107AN  22363.94878461 -.00008291  00000-0 -50328-3 0  9992,2 53736  53.2211  87.5186 0001511  46.0813 314.0304 15.08851591 17966,6917.845,95.437,540.755,538.665,0.0
53736.0,STARLINK-4652,PAYLOAD,2022-12-30 13:04:43,15.08831297,0.000221,53.2201,84.84200000000001,38.3455,321.7694,7.234300000000001e-05,8.63e-06,0.0,0 STARLINK-4652,1 53736U 22107AN  22364.54494561  .00000863  00000-0  72343-4 0  9991,2 53736  53.2201  84.8420 0002210  38.3455 321.7694 15.08831297 18687,6917.906999999997,95.438,541.3009999999998,538.243,0.0
